[{"OBJECT_NAME":"ONEWEB-0504","OBJECT_ID":"2022-138K","EPOCH":"2025-10-10T05:39:59.081472","MEAN_MOTION":13.19723049,"ECCENTRICITY":0.00015805,"INCLINATION":87.9282,"RA_OF_ASC_NODE":354.6795,"ARG_OF_PERICENTER":102.8982,"MEAN_ANOMALY":257.2327,"EPHEMERIS_TYPE":0,"CLASSIFICATION_TYPE":"U","NORAD_CAT_ID":54122,"ELEMENT_SET_NO":999,"REV_AT_EPOCH":14386,"BSTAR":0.00017663681,"MEAN_MOTION_DOT":8.4e-7,"MEAN_MOTION_DDOT":0},{"OBJECT_NAME":"ONEWEB-0505","OBJECT_ID":"2022-138L","EPOCH":"2025-10-10T05:35:27.488256","MEAN_MOTION":13.19726705,"ECCENTRICITY":0.00014844,"INCLINATION":87.9283,"RA_OF_ASC_NODE":354.6683,"ARG_OF_PERICENTER":114.7807,"MEAN_ANOMALY":245.348,"EPHEMERIS_TYPE":0,"CLASSIFICATION_TYPE":"U","NORAD_CAT_ID":54123,"ELEMENT_SET_NO":999,"REV_AT_EPOCH":14384,"BSTAR":0.00023638139,"MEAN_MOTION_DOT":1.08e-6,"MEAN_MOTION_DDOT":0},{"OBJECT_NAME":"ONEWEB-0506","OBJECT_ID":"2022-138M","EPOCH":"2025-10-10T04:59:02.920416","MEAN_MOTION":13.19723646,"ECCENTRICITY":0.00017335,"INCLINATION":87.9283,"RA_OF_ASC_NODE":354.6707,"ARG_OF_PERICENTER":102.8966,"MEAN_ANOMALY":257.2361,"EPHEMERIS_TYPE":0,"CLASSIFICATION_TYPE":"U","NORAD_CAT_ID":54124,"ELEMENT_SET_NO":999,"REV_AT_EPOCH":14383,"BSTAR":6.2162051e-5,"MEAN_MOTION_DOT":3.8e-7,"MEAN_MOTION_DDOT":0},{"OBJECT_NAME":"ONEWEB-0507","OBJECT_ID":"2022-138N","EPOCH":"2025-10-10T05:28:36.722784","MEAN_MOTION":13.19725061,"ECCENTRICITY":0.00017762,"INCLINATION":87.9261,"RA_OF_ASC_NODE":354.7124,"ARG_OF_PERICENTER":106.5925,"MEAN_ANOMALY":253.5403,"EPHEMERIS_TYPE":0,"CLASSIFICATION_TYPE":"U","NORAD_CAT_ID":54125,"ELEMENT_SET_NO":999,"REV_AT_EPOCH":14388,"BSTAR":-0.0003739087,"MEAN_MOTION_DOT":-1.37e-6,"MEAN_MOTION_DDOT":0},{"OBJECT_NAME":"ONEWEB-0508","OBJECT_ID":"2022-138P","EPOCH":"2025-10-10T05:24:04.424544","MEAN_MOTION":13.19723724,"ECCENTRICITY":0.0001735,"INCLINATION":87.9275,"RA_OF_ASC_NODE":354.7004,"ARG_OF_PERICENTER":112.3349,"MEAN_ANOMALY":247.7968,"EPHEMERIS_TYPE":0,"CLASSIFICATION_TYPE":"U","NORAD_CAT_ID":54126,"ELEMENT_SET_NO":999,"REV_AT_EPOCH":14386,"BSTAR":0.00028102595,"MEAN_MOTION_DOT":1.25e-6,"MEAN_MOTION_DDOT":0},{"OBJECT_NAME":"ONEWEB-0509","OBJECT_ID":"2022-138Q","EPOCH":"2025-10-10T04:47:40.545312","MEAN_MOTION":13.19728157,"ECCENTRICITY":0.00017596,"INCLINATION":87.9282,"RA_OF_ASC_NODE":354.6706,"ARG_OF_PERICENTER":103.9556,"MEAN_ANOMALY":256.1773,"EPHEMERIS_TYPE":0,"CLASSIFICATION_TYPE":"U","NORAD_CAT_ID":54127,"ELEMENT_SET_NO":999,"REV_AT_EPOCH":14383,"BSTAR":0.00019053208,"MEAN_MOTION_DOT":8.9e-7,"MEAN_MOTION_DDOT":0},{"OBJECT_NAME":"ONEWEB-0510","OBJECT_ID":"2022-138R","EPOCH":"2025-10-10T03:13:04.848096","MEAN_MOTION":13.20772906,"ECCENTRICITY":0.0002283,"INCLINATION":87.9224,"RA_OF_ASC_NODE":324.3046,"ARG_OF_PERICENTER":85.7779,"MEAN_ANOMALY":274.3615,"EPHEMERIS_TYPE":0,"CLASSIFICATION_TYPE":"U","NORAD_CAT_ID":54128,"ELEMENT_SET_NO":999,"REV_AT_EPOCH":14627,"BSTAR":-8.874521e-6,"MEAN_MOTION_DOT":9.0e-8,"MEAN_MOTION_DDOT":0},{"OBJECT_NAME":"ONEWEB-0511","OBJECT_ID":"2022-138S","EPOCH":"2025-10-10T04:43:07.860000","MEAN_MOTION":13.19724426,"ECCENTRICITY":0.00016605,"INCLINATION":87.9283,"RA_OF_ASC_NODE":354.6755,"ARG_OF_PERICENTER":93.6876,"MEAN_ANOMALY":266.4447,"EPHEMERIS_TYPE":0,"CLASSIFICATION_TYPE":"U","NORAD_CAT_ID":54129,"ELEMENT_SET_NO":999,"REV_AT_EPOCH":14386,"BSTAR":-2.7351707e-5,"MEAN_MOTION_DOT":2.0e-8,"MEAN_MOTION_DDOT":0},{"OBJECT_NAME":"ONEWEB-0512","OBJECT_ID":"2022-138T","EPOCH":"2025-10-10T06:20:55.677984","MEAN_MOTION":13.19723649,"ECCENTRICITY":0.00015545,"INCLINATION":87.9262,"RA_OF_ASC_NODE":354.697,"ARG_OF_PERICENTER":108.1692,"MEAN_ANOMALY":251.961,"EPHEMERIS_TYPE":0,"CLASSIFICATION_TYPE":"U","NORAD_CAT_ID":54130,"ELEMENT_SET_NO":999,"REV_AT_EPOCH":14384,"BSTAR":5.1735407e-5,"MEAN_MOTION_DOT":3.4e-7,"MEAN_MOTION_DDOT":0},{"OBJECT_NAME":"ONEWEB-0513","OBJECT_ID":"2022-138U","EPOCH":"2025-10-10T05:20:44.406816","MEAN_MOTION":13.20316888,"ECCENTRICITY":0.00012513,"INCLINATION":87.9284,"RA_OF_ASC_NODE":354.6654,"ARG_OF_PERICENTER":100.0213,"MEAN_ANOMALY":260.1061,"EPHEMERIS_TYPE":0,"CLASSIFICATION_TYPE":"U","NORAD_CAT_ID":54131,"ELEMENT_SET_NO":999,"REV_AT_EPOCH":14373,"BSTAR":0.00022312265,"MEAN_MOTION_DOT":1.03e-6,"MEAN_MOTION_DDOT":0},{"OBJECT_NAME":"ONEWEB-0514","OBJECT_ID":"2022-138V","EPOCH":"2025-10-10T04:54:30.655008","MEAN_MOTION":13.19727501,"ECCENTRICITY":0.00019145,"INCLINATION":87.9278,"RA_OF_ASC_NODE":354.6873,"ARG_OF_PERICENTER":96.5701,"MEAN_ANOMALY":263.565,"EPHEMERIS_TYPE":0,"CLASSIFICATION_TYPE":"U","NORAD_CAT_ID":54132,"ELEMENT_SET_NO":999,"REV_AT_EPOCH":14385,"BSTAR":0.0001936752,"MEAN_MOTION_DOT":9.0e-7,"MEAN_MOTION_DDOT":0},{"OBJECT_NAME":"ONEWEB-0515","OBJECT_ID":"2022-138W","EPOCH":"2025-10-10T02:54:52.973280","MEAN_MOTION":13.20769151,"ECCENTRICITY":0.00028299,"INCLINATION":87.9235,"RA_OF_ASC_NODE":324.2886,"ARG_OF_PERICENTER":96.24,"MEAN_ANOMALY":263.9056,"EPHEMERIS_TYPE":0,"CLASSIFICATION_TYPE":"U","NORAD_CAT_ID":54133,"ELEMENT_SET_NO":999,"REV_AT_EPOCH":14629,"BSTAR":0.00012192222,"MEAN_MOTION_DOT":6.3e-7,"MEAN_MOTION_DDOT":0},{"OBJECT_NAME":"ONEWEB-0516","OBJECT_ID":"2022-138X","EPOCH":"2025-10-10T06:07:17.825088","MEAN_MOTION":13.1972653,"ECCENTRICITY":0.0001876,"INCLINATION":87.9264,"RA_OF_ASC_NODE":354.7039,"ARG_OF_PERICENTER":105.1803,"MEAN_ANOMALY":254.9537,"EPHEMERIS_TYPE":0,"CLASSIFICATION_TYPE":"U","NORAD_CAT_ID":54134,"ELEMENT_SET_NO":999,"REV_AT_EPOCH":14386,"BSTAR":7.9542682e-5,"MEAN_MOTION_DOT":4.5e-7,"MEAN_MOTION_DDOT":0},{"OBJECT_NAME":"ONEWEB-0517","OBJECT_ID":"2022-138Y","EPOCH":"2025-10-10T05:37:42.970368","MEAN_MOTION":13.19727649,"ECCENTRICITY":0.00017059,"INCLINATION":87.9282,"RA_OF_ASC_NODE":354.6766,"ARG_OF_PERICENTER":91.7445,"MEAN_ANOMALY":268.3883,"EPHEMERIS_TYPE":0,"CLASSIFICATION_TYPE":"U","NORAD_CAT_ID":54135,"ELEMENT_SET_NO":999,"REV_AT_EPOCH":14386,"BSTAR":0.00035462024,"MEAN_MOTION_DOT":1.55e-6,"MEAN_MOTION_DDOT":0},{"OBJECT_NAME":"ONEWEB-0518","OBJECT_ID":"2022-138Z","EPOCH":"2025-10-10T06:04:59.941056","MEAN_MOTION":13.19727062,"ECCENTRICITY":0.00017635,"INCLINATION":87.9265,"RA_OF_ASC_NODE":354.7057,"ARG_OF_PERICENTER":104.4122,"MEAN_ANOMALY":255.7207,"EPHEMERIS_TYPE":0,"CLASSIFICATION_TYPE":"U","NORAD_CAT_ID":54136,"ELEMENT_SET_NO":999,"REV_AT_EPOCH":14386,"BSTAR":6.3381811e-5,"MEAN_MOTION_DOT":3.8e-7,"MEAN_MOTION_DDOT":0},{"OBJECT_NAME":"ONEWEB-0519","OBJECT_ID":"2022-138AA","EPOCH":"2025-10-10T04:52:13.407744","MEAN_MOTION":13.19727854,"ECCENTRICITY":0.00016559,"INCLINATION":87.9281,"RA_OF_ASC_NODE":354.6746,"ARG_OF_PERICENTER":94.7125,"MEAN_ANOMALY":265.4197,"EPHEMERIS_TYPE":0,"CLASSIFICATION_TYPE":"U","NORAD_CAT_ID":54137,"ELEMENT_SET_NO":999,"REV_AT_EPOCH":14386,"BSTAR":0.00014082819,"MEAN_MOTION_DOT":6.9e-7,"MEAN_MOTION_DDOT":0}]
