ONEWEB-0504             
1 54122U 22138K   25283.23610048  .00000084  00000+0  17664-3 0  9992
2 54122  87.9282 354.6795 0001580 102.8982 257.2327 13.19723049143864
ONEWEB-0505             
1 54123U 22138L   25283.23295704  .00000108  00000+0  23638-3 0  9996
2 54123  87.9283 354.6683 0001484 114.7807 245.3480 13.19726705143841
ONEWEB-0506             
1 54124U 22138M   25283.20767269  .00000038  00000+0  62162-4 0  9992
2 54124  87.9283 354.6707 0001733 102.8966 257.2361 13.19723646143830
ONEWEB-0507             
1 54125U 22138N   25283.22820281 -.00000137  00000+0 -37391-3 0  9996
2 54125  87.9261 354.7124 0001776 106.5925 253.5403 13.19725061143888
ONEWEB-0508             
1 54126U 22138P   25283.22505121  .00000125  00000+0  28103-3 0  9996
2 54126  87.9275 354.7004 0001735 112.3349 247.7968 13.19723724143864
ONEWEB-0509             
1 54127U 22138Q   25283.19977483  .00000089  00000+0  19053-3 0  9990
2 54127  87.9282 354.6706 0001759 103.9556 256.1773 13.19728157143833
ONEWEB-0510             
1 54128U 22138R   25283.13408389  .00000009  00000+0 -88745-5 0  9998
2 54128  87.9224 324.3046 0002283  85.7779 274.3615 13.20772906146279
ONEWEB-0511             
1 54129U 22138S   25283.19661875  .00000002  00000+0 -27352-4 0  9995
2 54129  87.9283 354.6755 0001660  93.6876 266.4447 13.19724426143861
ONEWEB-0512             
1 54130U 22138T   25283.26453331  .00000034  00000+0  51735-4 0  9997
2 54130  87.9262 354.6970 0001554 108.1692 251.9610 13.19723649143844
ONEWEB-0513             
1 54131U 22138U   25283.22273619  .00000103  00000+0  22312-3 0  9998
2 54131  87.9284 354.6654 0001251 100.0213 260.1061 13.20316888143737
ONEWEB-0514             
1 54132U 22138V   25283.20452147  .00000090  00000+0  19368-3 0  9994
2 54132  87.9278 354.6873 0001914  96.5701 263.5650 13.19727501143851
ONEWEB-0515             
1 54133U 22138W   25283.12144645  .00000063  00000+0  12192-3 0  9995
2 54133  87.9235 324.2886 0002829  96.2400 263.9056 13.20769151146295
ONEWEB-0516             
1 54134U 22138X   25283.25506742  .00000045  00000+0  79543-4 0  9994
2 54134  87.9264 354.7039 0001876 105.1803 254.9537 13.19726530143860
ONEWEB-0517             
1 54135U 22138Y   25283.23452512  .00000155  00000+0  35462-3 0  9991
2 54135  87.9282 354.6766 0001705  91.7445 268.3883 13.19727649143865
ONEWEB-0518             
1 54136U 22138Z   25283.25347154  .00000038  00000+0  63382-4 0  9992
2 54136  87.9265 354.7057 0001763 104.4122 255.7207 13.19727062143868
ONEWEB-0519             
1 54137U 22138AA  25283.20293296  .00000069  00000+0  14083-3 0  9992
2 54137  87.9281 354.6746 0001655  94.7125 265.4197 13.19727854143860
